{"type": "FeatureCollection", "features": [ {"type": "Feature", "properties": {"norad_id": 44622, "name": "GAOFEN-10R", "group": "resource", "lat": 5.229862436714115, "lon": 109.92388950348348, "alt_km": 625.703366095704, "timestamp": "2025-12-07T16:44:03.568635+00:00", "meta": {"OBJECT_NAME": "GAOFEN-10R", "OBJECT_ID": "2019-066A", "EPOCH": "2025-12-06T22:08:04.801056", "MEAN_MOTION": 14.82760913, "ECCENTRICITY": 0.00081576, "INCLINATION": 98.0273, "RA_OF_ASC_NODE": 288.4059, "ARG_OF_PERICENTER": 57.9146, "MEAN_ANOMALY": 302.2858, "EPHEMERIS_TYPE": 0, "CLASSIFICATION_TYPE": "U", "NORAD_CAT_ID": 44622, "ELEMENT_SET_NO": 999, "REV_AT_EPOCH": 33388, "BSTAR": 0.00038606337, "MEAN_MOTION_DOT": 3.067e-05, "MEAN_MOTION_DDOT": 0}, "tle": {"line1": "1 44622U 19066A   25340.92227779  .00003067  00000+0  38606-3 0  9990", "line2": "2 44622  98.0273 288.4059 0008157  57.9146 302.2858 14.82760913333882"}}, "geometry": {"type": "Point", "coordinates": [109.92388950348348, 5.229862436714115]}}, {"type": "Feature", "properties": {"norad_id": 44804, "name": "CARTOSAT-3", "group": "resource", "lat": 35.662321434631686, "lon": 35.949790803515675, "alt_km": 501.7281631648284, "timestamp": "2025-12-07T16:44:03.568645+00:00", "meta": {"OBJECT_NAME": "CARTOSAT-3", "OBJECT_ID": "2019-081A", "EPOCH": "2025-12-06T23:11:19.970304", "MEAN_MOTION": 15.19297538, "ECCENTRICITY": 0.00139526, "INCLINATION": 97.459, "RA_OF_ASC_NODE": 40.6224, "ARG_OF_PERICENTER": 105.1523, "MEAN_ANOMALY": 255.1256, "EPHEMERIS_TYPE": 0, "CLASSIFICATION_TYPE": "U", "NORAD_CAT_ID": 44804, "ELEMENT_SET_NO": 999, "REV_AT_EPOCH": 33428, "BSTAR": 0.00034605424, "MEAN_MOTION_DOT": 7.255e-05, "MEAN_MOTION_DDOT": 0}, "tle": {"line1": "1 44804U 19081A   25340.96620336  .00007255  00000+0  34605-3 0  9997", "line2": "2 44804  97.4590  40.6224 0013952 105.1523 255.1256 15.19297538334287"}}, "geometry": {"type": "Point", "coordinates": [35.949790803515675, 35.662321434631686]}}, {"type": "Feature", "properties": {"norad_id": 44819, "name": "GAOFEN-12 01", "group": "resource", "lat": 58.87803903392485, "lon": -178.74510769736415, "alt_km": 622.3241687182681, "timestamp": "2025-12-07T16:44:03.568655+00:00", "meta": {"OBJECT_NAME": "GAOFEN-12 01", "OBJECT_ID": "2019-082A", "EPOCH": "2025-12-06T22:21:08.906976", "MEAN_MOTION": 14.80646937, "ECCENTRICITY": 0.00011877, "INCLINATION": 97.8125, "RA_OF_ASC_NODE": 347.3648, "ARG_OF_PERICENTER": 273.3937, "MEAN_ANOMALY": 86.7139, "EPHEMERIS_TYPE": 0, "CLASSIFICATION_TYPE": "U", "NORAD_CAT_ID": 44819, "ELEMENT_SET_NO": 999, "REV_AT_EPOCH": 32564, "BSTAR": 0.00012996276, "MEAN_MOTION_DOT": 9.47e-06, "MEAN_MOTION_DDOT": 0}, "tle": {"line1": "1 44819U 19082A   25340.93135309  .00000947  00000+0  12996-3 0  9992", "line2": "2 44819  97.8125 347.3648 0001187 273.3937  86.7139 14.80646937325648"}}, "geometry": {"type": "Point", "coordinates": [-178.74510769736415, 58.87803903392485]}}, {"type": "Feature", "properties": {"norad_id": 44873, "name": "CSG-1", "group": "resource", "lat": -23.669039988290375, "lon": -20.38391034534201, "alt_km": 628.5723175658768, "timestamp": "2025-12-07T16:44:03.568666+00:00", "meta": {"OBJECT_NAME": "CSG-1", "OBJECT_ID": "2019-092A", "EPOCH": "2025-12-06T21:59:41.939232", "MEAN_MOTION": 14.8215152, "ECCENTRICITY": 0.00014628, "INCLINATION": 97.8813, "RA_OF_ASC_NODE": 162.3283, "ARG_OF_PERICENTER": 86.1772, "MEAN_ANOMALY": 273.9608, "EPHEMERIS_TYPE": 0, "CLASSIFICATION_TYPE": "U", "NORAD_CAT_ID": 44873, "ELEMENT_SET_NO": 999, "REV_AT_EPOCH": 32299, "BSTAR": 0.00015222153, "MEAN_MOTION_DOT": 1.16e-05, "MEAN_MOTION_DDOT": 0}, "tle": {"line1": "1 44873U 19092A   25340.91645763  .00001160  00000+0  15222-3 0  9994", "line2": "2 44873  97.8813 162.3283 0001462  86.1772 273.9608 14.82151520322992"}}, "geometry": {"type": "Point", "coordinates": [-20.38391034534201, -23.669039988290375]}}, {"type": "Feature", "properties": {"norad_id": 46277, "name": "NEMO-HD", "group": "resource", "lat": 29.55326961074067, "lon": 36.737140891405495, "alt_km": 442.96069490099035, "timestamp": "2025-12-07T16:44:03.568676+00:00", "meta": {"OBJECT_NAME": "NEMO-HD", "OBJECT_ID": "2020-061F", "EPOCH": "2025-12-06T21:53:37.578336", "MEAN_MOTION": 15.40149485, "ECCENTRICITY": 0.0002185, "INCLINATION": 97.2217, "RA_OF_ASC_NODE": 40.0852, "ARG_OF_PERICENTER": 63.5057, "MEAN_ANOMALY": 296.6414, "EPHEMERIS_TYPE": 0, "CLASSIFICATION_TYPE": "U", "NORAD_CAT_ID": 46277, "ELEMENT_SET_NO": 999, "REV_AT_EPOCH": 29234, "BSTAR": 0.00038600404, "MEAN_MOTION_DOT": 0.00015408, "MEAN_MOTION_DDOT": 0}, "tle": {"line1": "1 46277U 20061F   25340.91224049  .00015408  00000+0  38600-3 0  9997", "line2": "2 46277  97.2217  40.0852 0002185  63.5057 296.6414 15.40149485292340"}}, "geometry": {"type": "Point", "coordinates": [36.737140891405495, 29.55326961074067]}}, {"type": "Feature", "properties": {"norad_id": 46984, "name": "SENTINEL-6A", "group": "resource", "lat": -58.418816763117654, "lon": 39.11051683568518, "alt_km": 1338.338162138496, "timestamp": "2025-12-07T16:44:03.568686+00:00", "meta": {"OBJECT_NAME": "SENTINEL-6A", "OBJECT_ID": "2020-086A", "EPOCH": "2025-12-06T22:34:30.091584", "MEAN_MOTION": 12.80930313, "ECCENTRICITY": 0.00077413, "INCLINATION": 66.0392, "RA_OF_ASC_NODE": 174.3533, "ARG_OF_PERICENTER": 269.2083, "MEAN_ANOMALY": 90.8045, "EPHEMERIS_TYPE": 0, "CLASSIFICATION_TYPE": "U", "NORAD_CAT_ID": 46984, "ELEMENT_SET_NO": 999, "REV_AT_EPOCH": 23570, "BSTAR": 6.0615215e-05, "MEAN_MOTION_DOT": -4.7e-07, "MEAN_MOTION_DDOT": 0}, "tle": {"line1": "1 46984U 20086A   25340.94062606 -.00000047  00000+0  60615-4 0  9997", "line2": "2 46984  66.0392 174.3533 0007741 269.2083  90.8045 12.80930313235707"}}, "geometry": {"type": "Point", "coordinates": [39.11051683568518, -58.418816763117654]}}, {"type": "Feature", "properties": {"norad_id": 48079, "name": "GAOFEN-12 02", "group": "resource", "lat": 48.21135842786022, "lon": 164.76383724503563, "alt_km": 620.6978043386152, "timestamp": "2025-12-07T16:44:03.568696+00:00", "meta": {"OBJECT_NAME": "GAOFEN-12 02", "OBJECT_ID": "2021-026A", "EPOCH": "2025-12-06T22:18:13.922784", "MEAN_MOTION": 14.80664343, "ECCENTRICITY": 0.0003397, "INCLINATION": 97.9848, "RA_OF_ASC_NODE": 334.9638, "ARG_OF_PERICENTER": 112.5658, "MEAN_ANOMALY": 247.5914, "EPHEMERIS_TYPE": 0, "CLASSIFICATION_TYPE": "U", "NORAD_CAT_ID": 48079, "ELEMENT_SET_NO": 999, "REV_AT_EPOCH": 25331, "BSTAR": 0.00013441732, "MEAN_MOTION_DOT": 9.8e-06, "MEAN_MOTION_DDOT": 0}, "tle": {"line1": "1 48079U 21026A   25340.92932781  .00000980  00000+0  13442-3 0  9997", "line2": "2 48079  97.9848 334.9638 0003397 112.5658 247.5914 14.80664343253316"}}, "geometry": {"type": "Point", "coordinates": [164.76383724503563, 48.21135842786022]}}, {"type": "Feature", "properties": {"norad_id": 48268, "name": "PLEIADES NEO 3", "group": "resource", "lat": -0.06537973314550247, "lon": -125.79869247532835, "alt_km": 627.0311266575955, "timestamp": "2025-12-07T16:44:03.568707+00:00", "meta": {"OBJECT_NAME": "PLEIADES NEO 3", "OBJECT_ID": "2021-034A", "EPOCH": "2025-12-06T22:05:46.818528", "MEAN_MOTION": 14.8167615, "ECCENTRICITY": 0.00013443, "INCLINATION": 97.8949, "RA_OF_ASC_NODE": 53.445, "ARG_OF_PERICENTER": 94.8131, "MEAN_ANOMALY": 265.3235, "EPHEMERIS_TYPE": 0, "CLASSIFICATION_TYPE": "U", "NORAD_CAT_ID": 48268, "ELEMENT_SET_NO": 999, "REV_AT_EPOCH": 24918, "BSTAR": 2.712307e-05, "MEAN_MOTION_DOT": 1.61e-06, "MEAN_MOTION_DDOT": 0}, "tle": {"line1": "1 48268U 21034A   25340.92068077  .00000161  00000+0  27123-4 0  9997", "line2": "2 48268  97.8949  53.4450 0001344  94.8131 265.3235 14.81676150249184"}}, "geometry": {"type": "Point", "coordinates": [-125.79869247532835, -0.06537973314550247]}}, {"type": "Feature", "properties": {"norad_id": 49070, "name": "PLEIADES NEO 4", "group": "resource", "lat": -0.16085614634351397, "lon": 54.22839614247247, "alt_km": 627.139300343255, "timestamp": "2025-12-07T16:44:03.568717+00:00", "meta": {"OBJECT_NAME": "PLEIADES NEO 4", "OBJECT_ID": "2021-073E", "EPOCH": "2025-12-06T21:17:08.524608", "MEAN_MOTION": 14.81672746, "ECCENTRICITY": 0.00012707, "INCLINATION": 97.895, "RA_OF_ASC_NODE": 53.4074, "ARG_OF_PERICENTER": 95.5132, "MEAN_ANOMALY": 264.6226, "EPHEMERIS_TYPE": 0, "CLASSIFICATION_TYPE": "U", "NORAD_CAT_ID": 49070, "ELEMENT_SET_NO": 999, "REV_AT_EPOCH": 23289, "BSTAR": -4.120072e-06, "MEAN_MOTION_DOT": -8.4e-07, "MEAN_MOTION_DDOT": 0}, "tle": {"line1": "1 49070U 21073E   25340.88690422 -.00000084  00000+0 -41201-5 0  9992", "line2": "2 49070  97.8950  53.4074 0001270  95.5132 264.6226 14.81672746232896"}}, "geometry": {"type": "Point", "coordinates": [54.22839614247247, -0.16085614634351397]}}, {"type": "Feature", "properties": {"norad_id": 49260, "name": "LANDSAT 9", "group": "resource", "lat": 75.70308284896302, "lon": -95.60934510006793, "alt_km": 694.5263815124745, "timestamp": "2025-12-07T16:44:03.568727+00:00", "meta": {"OBJECT_NAME": "LANDSAT 9", "OBJECT_ID": "2021-088A", "EPOCH": "2025-12-06T22:08:26.318976", "MEAN_MOTION": 14.57121107, "ECCENTRICITY": 0.00011036, "INCLINATION": 98.2101, "RA_OF_ASC_NODE": 49.1177, "ARG_OF_PERICENTER": 94.1258, "MEAN_ANOMALY": 266.0067, "EPHEMERIS_TYPE": 0, "CLASSIFICATION_TYPE": "U", "NORAD_CAT_ID": 49260, "ELEMENT_SET_NO": 999, "REV_AT_EPOCH": 22300, "BSTAR": 0.00019842217, "MEAN_MOTION_DOT": 8.49e-06, "MEAN_MOTION_DDOT": 0}, "tle": {"line1": "1 49260U 21088A   25340.92252684  .00000849  00000+0  19842-3 0  9999", "line2": "2 49260  98.2101  49.1177 0001103  94.1258 266.0067 14.57121107223000"}}, "geometry": {"type": "Point", "coordinates": [-95.60934510006793, 75.70308284896302]}}]}